$$SOE
2461295.500000000, A.D. 2026-Sep-12 00:00:00.0000, -3.492487543106510E+08, 2.879347886974876E+08, -4.533190456267565E+06,
2461302.500000000, A.D. 2026-Sep-19 00:00:00.0000, -3.564076100569662E+08, 2.805504583861570E+08, -6.085457813042164E+06,
2461309.500000000, A.D. 2026-Sep-26 00:00:00.0000, -3.633812439984601E+08, 2.730204941616150E+08, -7.634546620043993E+06,
2461316.500000000, A.D. 2026-Oct-03 00:00:00.0000, -3.701672219088244E+08, 2.653497050365326E+08, -9.179674934473604E+06,
2461323.500000000, A.D. 2026-Oct-10 00:00:00.0000, -3.767632409199321E+08, 2.575429148091220E+08, -1.072007288583353E+07,
2461330.500000000, A.D. 2026-Oct-17 00:00:00.0000, -3.831671278249404E+08, 2.496049586103894E+08, -1.225498288021965E+07,
2461337.500000000, A.D. 2026-Oct-24 00:00:00.0000, -3.893768373189731E+08, 2.415406794976208E+08, -1.378365978838770E+07,
2461344.500000000, A.D. 2026-Oct-31 00:00:00.0000, -3.953904500865454E+08, 2.333549250260709E+08, -1.530537113295493E+07,
2461351.500000000, A.D. 2026-Nov-07 00:00:00.0000, -4.012061704042274E+08, 2.250525438711760E+08, -1.681939730059001E+07,
2461358.500000000, A.D. 2026-Nov-14 00:00:00.0000, -4.068223230649517E+08, 2.166383833863927E+08, -1.832503172585412E+07,
2461365.500000000, A.D. 2026-Nov-21 00:00:00.0000, -4.122373514436105E+08, 2.081172887759885E+08, -1.982158082565829E+07,
2461372.500000000, A.D. 2026-Nov-28 00:00:00.0000, -4.174498177104025E+08, 1.994941008732732E+08, -2.130836383967271E+07,
2461379.500000000, A.D. 2026-Dec-05 00:00:00.0000, -4.224584015779526E+08, 1.907736518664733E+08, -2.278471296298356E+07,
2461386.500000000, A.D. 2026-Dec-12 00:00:00.0000, -4.272618974216139E+08, 1.819607620790559E+08, -2.424997353222378E+07,
2461393.500000000, A.D. 2026-Dec-19 00:00:00.0000, -4.318592116673346E+08, 1.730602378069181E+08, -2.570350409242423E+07,
2461400.500000000, A.D. 2026-Dec-26 00:00:00.0000, -4.362493605966912E+08, 1.640768693422901E+08, -2.714467640358595E+07,
2461407.500000000, A.D. 2027-Jan-02 00:00:00.0000, -4.404314682987137E+08, 1.550154289913554E+08, -2.857287542879039E+07,
2461414.500000000, A.D. 2027-Jan-09 00:00:00.0000, -4.444047646560360E+08, 1.458806691029727E+08, -2.998749931364924E+07,
2461421.500000000, A.D. 2027-Jan-16 00:00:00.0000, -4.481685833340800E+08, 1.366773201138587E+08, -3.138795936018614E+07,
2461428.500000000, A.D. 2027-Jan-23 00:00:00.0000, -4.517223597312422E+08, 1.274100885663162E+08, -3.277368000305986E+07,
2461435.500000000, A.D. 2027-Jan-30 00:00:00.0000, -4.550656287068688E+08, 1.180836550457080E+08, -3.414409880974028E+07,
2461442.500000000, A.D. 2027-Feb-06 00:00:00.0000, -4.581980216677560E+08, 1.087026723725640E+08, -3.549866651653421E+07,
2461449.500000000, A.D. 2027-Feb-13 00:00:00.0000, -4.611192634797256E+08, 9.927176526440179E+07, -3.683684695962213E+07,
2461456.500000000, A.D. 2027-Feb-20 00:00:00.0000, -4.638291715750077E+08, 8.979553067269126E+07, -3.815811675039028E+07,
2461463.500000000, A.D. 2027-Feb-27 00:00:00.0000, -4.663276558657020E+08, 8.027853557956453E+07, -3.946196508727846E+07,
2461470.500000000, A.D. 2027-Mar-06 00:00:00.0000, -4.686147164474520E+08, 7.072531417563672E+07, -4.074789382464818E+07,
2461477.500000000, A.D. 2027-Mar-13 00:00:00.0000, -4.706904406934690E+08, 6.114036646488758E+07, -4.201541748470492E+07,
2461484.500000000, A.D. 2027-Mar-20 00:00:00.0000, -4.725550008697683E+08, 5.152815745739795E+07, -4.326406317772803E+07,
2461491.500000000, A.D. 2027-Mar-27 00:00:00.0000, -4.742086520717512E+08, 4.189311639714044E+07, -4.449337049475405E+07,
2461498.500000000, A.D. 2027-Apr-03 00:00:00.0000, -4.756517302808372E+08, 3.223963597345528E+07, -4.570289139580467E+07,
2461505.500000000, A.D. 2027-Apr-10 00:00:00.0000, -4.768846504813437E+08, 2.257207153548915E+07, -4.689219009789906E+07,
2461512.500000000, A.D. 2027-Apr-17 00:00:00.0000, -4.779079048171369E+08, 1.289474029160113E+07, -4.806084296659620E+07,
2461519.500000000, A.D. 2027-Apr-24 00:00:00.0000, -4.787220607104802E+08, 3.211920428221926E+06, -4.920843842399408E+07,
2461526.500000000, A.D. 2027-May-01 00:00:00.0000, -4.793277586448261E+08, -6.472149827023508E+06, -5.033457689893198E+07,
2461533.500000000, A.D. 2027-May-08 00:00:00.0000, -4.797257093049793E+08, -1.615327245236856E+07, -5.143887078685225E+07,
2461540.500000000, A.D. 2027-May-15 00:00:00.0000, -4.799166915719475E+08, -2.582728823878571E+07, -5.252094420447597E+07,
2461547.500000000, A.D. 2027-May-22 00:00:00.0000, -4.799015529375428E+08, -3.549007635164765E+07, -5.358043260823838E+07,
2461554.500000000, A.D. 2027-May-29 00:00:00.0000, -4.796812089845157E+08, -4.513755631780874E+07, -5.461698270487101E+07,
2461561.500000000, A.D. 2027-Jun-05 00:00:00.0000, -4.792566410470372E+08, -5.476568930802412E+07, -5.563025247933928E+07,
2461568.500000000, A.D. 2027-Jun-12 00:00:00.0000, -4.786288940576504E+08, -6.437047828574859E+07, -5.661991112051305E+07,
2461575.500000000, A.D. 2027-Jun-19 00:00:00.0000, -4.777990749116390E+08, -7.394796796084966E+07, -5.758563889080051E+07,
2461582.500000000, A.D. 2027-Jun-26 00:00:00.0000, -4.767683510701237E+08, -8.349424481246005E+07, -5.852712698705435E+07,
2461589.500000000, A.D. 2027-Jul-03 00:00:00.0000, -4.755379492701413E+08, -9.300543717500938E+07, -5.944407740434177E+07,
2461596.500000000, A.D. 2027-Jul-10 00:00:00.0000, -4.741091543047801E+08, -1.024777153809635E+08, -6.033620280524002E+07,
2461603.500000000, A.D. 2027-Jul-17 00:00:00.0000, -4.724833078367476E+08, -1.119072920014486E+08, -6.120322640111333E+07,
2461610.500000000, A.D. 2027-Jul-24 00:00:00.0000, -4.706618070886534E+08, -1.212904222498682E+08, -6.204488186480633E+07,
2461617.500000000, A.D. 2027-Jul-31 00:00:00.0000, -4.686461029981993E+08, -1.306234043152007E+08, -6.286091329319559E+07,
2461624.500000000, A.D. 2027-Aug-07 00:00:00.0000, -4.664376980383438E+08, -1.399025784753941E+08, -6.365107510701300E+07,
2461631.500000000, A.D. 2027-Aug-14 00:00:00.0000, -4.640381460028733E+08, -1.491243252466544E+08, -6.441513169767599E+07,
2461638.500000000, A.D. 2027-Aug-21 00:00:00.0000, -4.614490531396041E+08, -1.582850659356342E+08, -6.515285715327279E+07,
2461645.500000000, A.D. 2027-Aug-28 00:00:00.0000, -4.586720772011903E+08, -1.673812643930945E+08, -6.586403528062190E+07,
2461652.500000000, A.D. 2027-Sep-04 00:00:00.0000, -4.557089255941997E+08, -1.764094274674587E+08, -6.654845961069564E+07,
2461659.500000000, A.D. 2027-Sep-11 00:00:00.0000, -4.525613540202755E+08, -1.853661048206504E+08, -6.720593331349218E+07,
2461666.500000000, A.D. 2027-Sep-18 00:00:00.0000, -4.492311654750425E+08, -1.942478887578155E+08, -6.783626908791542E+07,
2461673.500000000, A.D. 2027-Sep-25 00:00:00.0000, -4.457202093748838E+08, -2.030514141496594E+08, -6.843928905420014E+07,
2461680.500000000, A.D. 2027-Oct-02 00:00:00.0000, -4.420303807350894E+08, -2.117733584207985E+08, -6.901482465355748E+07,
2461687.500000000, A.D. 2027-Oct-09 00:00:00.0000, -4.381636193752292E+08, -2.204104416100595E+08, -6.956271655753417E+07,
2461694.500000000, A.D. 2027-Oct-16 00:00:00.0000, -4.341219090873951E+08, -2.289594265596073E+08, -7.008281459770177E+07,
2461701.500000000, A.D. 2027-Oct-23 00:00:00.0000, -4.299072765071192E+08, -2.374171192406376E+08, -7.057497774057548E+07,
2461708.500000000, A.D. 2027-Oct-30 00:00:00.0000, -4.255217893123759E+08, -2.457803686067822E+08, -7.103907409285730E+07,
2461715.500000000, A.D. 2027-Nov-06 00:00:00.0000, -4.209675549138495E+08, -2.540460648479020E+08, -7.147498073845243E+07,
2461722.500000000, A.D. 2027-Nov-13 00:00:00.0000, -4.162467216212015E+08, -2.622111381214552E+08, -7.188258339506505E+07,
2461729.500000000, A.D. 2027-Nov-20 00:00:00.0000, -4.113614793834032E+08, -2.702725599487516E+08, -7.226177633549419E+07,
2461736.500000000, A.D. 2027-Nov-27 00:00:00.0000, -4.063140584856280E+08, -2.782273443123634E+08, -7.261246247981295E+07,
2461743.500000000, A.D. 2027-Dec-04 00:00:00.0000, -4.011067282250907E+08, -2.860725475408278E+08, -7.293455339780802E+07,
2461750.500000000, A.D. 2027-Dec-11 00:00:00.0000, -3.957417961145870E+08, -2.938052679451442E+08, -7.322796924959649E+07,
2461757.500000000, A.D. 2027-Dec-18 00:00:00.0000, -3.902216073372840E+08, -3.014226455473917E+08, -7.349263871722527E+07,
2461764.500000000, A.D. 2027-Dec-25 00:00:00.0000, -3.845485442999339E+08, -3.089218619050300E+08, -7.372849894142216E+07,
2461771.500000000, A.D. 2028-Jan-01 00:00:00.0000, -3.787250262425472E+08, -3.163001400174534E+08, -7.393549546613568E+07,
$$EOE